INTELSAT 23 (IS-23)     
1 38867U 12057A   26181.14827225 -.00000274  00000+0  00000+0 0  9998
2 38867   0.0187  52.2391 0000496  72.4763 153.8978  1.00275203 50084
FM-6                    
1 39360U 13058A   26181.51299587 -.00000005  00000+0  00000+0 0  9996
2 39360   0.0208  53.0281 0001820 128.0985 165.8183  1.00271303 46207
INTELSAT 30 (IS-30)     
1 40271U 14062A   26180.84157992 -.00000140  00000+0  00000+0 0  9993
2 40271   0.0193  43.7532 0001603 346.9405  95.1444  1.00272441  6929
DIRECTV 14              
1 40333U 14078B   26181.59747557 -.00000115  00000+0  00000+0 0  9996
2 40333   0.0112  26.7471 0000405 352.9297  14.8397  1.00270222 42174
DIRECTV 15              
1 40663U 15026A   26181.59888508 -.00000092  00000+0  00000+0 0  9992
2 40663   0.0152  44.0588 0000551   7.8357 339.4992  1.00270498 40597
SKY MEXICO-1            
1 40664U 15026B   26181.49964066 -.00000224  00000+0  00000+0 0  9993
2 40664   0.0187  20.1085 0002655  96.9748 262.5531  1.00271008 40585
INTELSAT 34 (IS-34)     
1 40874U 15039A   26180.85944352 -.00000274  00000+0  00000+0 0  9990
2 40874   0.0117 347.8152 0000688  41.6202 142.4086  1.00271809 39769
INTELSAT 31 (IS-31)     
1 41581U 16035A   26181.59537406 -.00000140  00000+0  00000+0 0  9995
2 41581   0.0212 276.1853 0000634   9.4333 112.3227  1.00270318 36811
INTELSAT 36 (IS-36)     
1 41747U 16053A   26181.52879058 -.00000014  00000+0  00000+0 0  9994
2 41747   0.0102  13.2508 0002158 336.7967 187.4165  1.00270540 36093
INTELSAT 32E (IS-32E)   
1 41945U 17007B   26180.50866479  .00000000  00000+0  00000+0 0  9998
2 41945   0.0243  13.6582 0000889 344.8527  59.0307  1.00268307 34342
INTELSAT 35E (IS-35E)   
1 42818U 17041A   26181.41427563  .00000000  00000+0  00000+0 0  9994
2 42818   0.0224  21.3559 0002344  77.7802 293.9857  1.00267734 32943
INTELSAT 37E (IS-37E)   
1 42950U 17059A   26181.44039475  .00000000  00000+0  00000+0 0  9994
2 42950   0.0248  31.0347 0002902  71.9734 316.0377  1.00268452 32198
AZERSPACE 2 (IS-38)     
1 43632U 18074A   26181.52419722  .00000000  00000+0  00000+0 0  9996
2 43632   0.0251  26.8981 0001660  75.4056  50.1070  1.00270037 28588
HORIZONS-3E             
1 43633U 18074B   26180.69323295 -.00000019  00000+0  00000+0 0  9994
2 43633   0.0212 193.1190 0000455  97.6770  45.5517  1.00271768 28469
AT&T T-16               
1 44333U 19034A   26181.59747556 -.00000104  00000+0  00000+0 0  9994
2 44333   0.0167  60.3335 0000368 271.7919  60.7611  1.00269159 25760
INTELSAT 39 (IS-39)     
1 44476U 19049B   26180.87605734  .00000000  00000+0  00000+0 0  9993
2 44476   0.0235  15.0802 0000785 336.7209 303.4894  1.00271871 25255
GALAXY 30 (G-30)        
1 46114U 20056C   26181.60722859  .00000047  00000+0  00000+0 0  9995
2 46114   0.0177  29.8448 0002259  67.0191 275.3998  1.00272760 21427
GALAXY 33 (G-33)        
1 54026U 22128A   26181.61132152  .00000089  00000+0  00000+0 0  9996
2 54026   0.0146  13.8640 0002073  83.0382 268.8539  1.00272795 13871
GALAXY 34 (G-34)        
1 54027U 22128B   26180.99064345  .00000000  00000+0  00000+0 0  9998
2 54027   0.0271  10.7424 0001784 104.0312  30.9304  1.00272992 14049
GALAXY 31 (G-31)        
1 54243U 22153A   26181.60583137  .00000024  00000+0  00000+0 0  9996
2 54243   0.0165  54.1436 0001619  41.2247 280.3926  1.00271858  7269
GALAXY 32 (G-32)        
1 54244U 22153B   26180.57044943 -.00000163  00000+0  00000+0 0  9994
2 54244   0.0109  21.8148 0002017  29.7185 340.4784  1.00271332 13268
GALAXY 35 (G-35)        
1 54741U 22170A   26181.59467363  .00000000  00000+0  00000+0 0  9992
2 54741   0.0240  48.7434 0002187  51.3617 299.5220  1.00268564 13027
GALAXY 36 (G-36)        
1 54742U 22170B   26181.49756065 -.00000174  00000+0  00000+0 0  9995
2 54742   0.0060 341.0330 0002877 112.3690 275.2813  1.00270887 12903
GALAXY 37 (G-37)        
1 57493U 23112A   26181.60793172  .00000059  00000+0  00000+0 0  9992
2 57493   0.0157 327.7805 0002146 131.4031 271.3455  1.00271230 10678
